0 DELTA 1 DEB
1 07063U 73086BF  13281.79933307 -.00000259  00000-0 -55530-3 0  9681
2 07063 102.4195 026.5390 0303123 140.2779 340.1275 12.99277098890572
0 DELTA 1 DEB
1 07063U 73086BF  13284.18561497 -.00000300  00000-0 -66562-3 0  9699
2 07063 102.4196 029.2559 0303032 135.4226 341.7043 12.99276723890880
0 DELTA 1 DEB
1 07063U 73086BF  13286.24653012 -.00000341  00000-0 -77642-3 0  9701
2 07063 102.4198 031.6023 0303007 131.2223 261.4163 12.99275811891157
0 DELTA 1 DEB
1 07063U 73086BF  13288.25388088 -.00000334  00000-0 -75784-3 0  9710
2 07063 102.4197 033.8879 0302955 127.1354 290.5768 12.99274868891413
0 DELTA 1 DEB
1 07063U 73086BF  13291.11691209 -.00000374  00000-0 -86670-3 0  9722
2 07063 102.4192 037.1479 0302883 121.3019 002.0804 12.99273475891785
0 DELTA 1 DEB
1 07063U 73086BF  13293.18355194 -.00000392  00000-0 -91652-3 0  9738
2 07063 102.4187 039.5008 0302837 117.0920 308.5428 12.99272339892050
0 DELTA 1 DEB
1 07063U 73086BF  13295.18550627 -.00000415  00000-0 -97796-3 0  9740
2 07063 102.4183 041.7801 0302783 113.0120 312.4399 12.99271286892310
